PROBA-1                 
1 26958U 01049B   26184.66407927  .00001350  00000+0  90191-4 0  9998
2 26958  97.9593 193.7726 0056476  67.8438 292.8769 15.07566074346101
CUTE-1 (CO-55)          
1 27844U 03031E   26183.84293221  .00000336  00000+0  16430-3 0  9991
2 27844  98.6736 192.2049 0010444 134.8646 225.3383 14.24345535193902
CUBESAT XI-IV (CO-57)   
1 27848U 03031J   26183.76896903  .00000279  00000+0  14166-3 0  9992
2 27848  98.6769 191.8320 0009989 152.4134 207.7577 14.23629228193596
APRIZESAT 4             
1 35684U 09041D   26183.15936325  .00000764  00000+0  97714-4 0  9992
2 35684  98.1409 258.7781 0041886 273.0980  86.5440 14.83899214913585
APRIZESAT 3             
1 35686U 09041F   26183.68055769  .00001201  00000+0  10820-3 0  9995
2 35686  98.2079 337.6483 0061915  16.9430 343.3839 14.96282760918695
PROBA-2                 
1 36037U 09059B   26183.78372694  .00000221  00000+0  62056-4 0  9995
2 36037  98.2454   6.9205 0012234 228.9186 131.0955 14.54869294883794
APRIZESAT 5             
1 37792U 11044E   26183.54562955  .00001194  00000+0  15796-3 0  9994
2 37792  98.2450 117.0216 0051161 314.4674  45.2359 14.81108748801064
APRIZESAT 6             
1 37793U 11044F   26183.72179530  .00000982  00000+0  14531-3 0  9998
2 37793  98.2350  94.5379 0043989  37.6901 344.9611 14.76941007799444
PROBA-V                 
1 39159U 13021A   26183.86291997  .00000136  00000+0  77657-4 0  9990
2 39159  98.3594 161.6963 0005432  87.7183 272.4619 14.23601105683345
APRIZESAT 7             
1 39416U 13066A   26184.32137609  .00001046  00000+0  10862-3 0  9991
2 39416  97.7717 137.3101 0036440 155.5206 204.7753 14.91598101683633
APRIZESAT 8             
1 39425U 13066K   26183.81321478  .00001023  00000+0  11656-3 0  9990
2 39425  97.8225 131.0638 0044605 233.4143 126.2966 14.87680376681994
BUGSAT-1 (TITA)         
1 40014U 14033E   26184.67298042  .00007634  00000+0  39966-3 0  9994
2 40014  98.0434 278.1882 0028892 123.3697 237.0305 15.15776157658335
SAUDISAT 4              
1 40016U 14033G   26183.67353352  .00000691  00000+0  97670-4 0  9994
2 40016  97.7603 329.2740 0045307  24.7460 335.5912 14.79564269648362
APRIZESAT 9             
1 40018U 14033J   26183.81859783  .00000936  00000+0  14437-3 0  9992
2 40018  97.9081 316.6366 0066872 149.0591 211.4585 14.74238561645864
APRIZESAT 10            
1 40019U 14033K   26183.84096125  .00000716  00000+0  12005-3 0  9994
2 40019  97.9670 310.4529 0077838 223.0623 136.4478 14.70899232644551
TECHDEMOSAT-1 (TDS-1)   
1 40076U 14037H   26183.69607961  .00008733  00000+0  49136-3 0  9992
2 40076  98.3815 177.4486 0005632 199.5033 160.5982 15.13527171650573
TECHNOSAT               
1 42829U 17042E   26183.67421031  .00003012  00000+0  21541-3 0  9994
2 42829  97.4294 340.7445 0018578  44.9209 315.3517 15.05047398489037
FLYING LAPTOP           
1 42831U 17042G   26184.64940449  .00003002  00000+0  23721-3 0  9995
2 42831  97.4764 339.5560 0019966  69.1699 291.1662 15.01251005488927
HAWK-A                  
1 43765U 18099H   26183.57373039  .00007466  00000+0  29894-3 0  9996
2 43765  97.3901 235.6097 0033542 229.1034 130.7297 15.24825216415449
HAWK-B                  
1 43794U 18099AN  26183.61366169  .00006927  00000+0  29393-3 0  9994
2 43794  97.3948 235.0320 0030413 247.8388 111.9620 15.22992160415383
HAWK-C                  
1 43799U 18099AT  26183.58078067  .00008396  00000+0  30026-3 0  9999
2 43799  97.3878 236.6053 0039169 229.0602 130.7245 15.28320860416266
SALSAT                  
1 46495U 20068K   26183.25417132  .00008637  00000+0  29987-3 0  9990
2 46495  97.8847 187.2381 0008038 243.7769 116.2645 15.30013367317667
HAWK-2C                 
1 47502U 21006CT  26183.53937733  .00007487  00000+0  22364-3 0  9992
2 47502  97.2264 227.5437 0008195 137.0400 223.1485 15.34851524301858
HAWK-2A                 
1 47505U 21006CW  26183.02016324  .00007854  00000+0  23445-3 0  9992
2 47505  97.2308 227.7213 0007607 141.4283 218.7506 15.34859675301779
HAWK-2B                 
1 47508U 21006CZ  26183.66664475  .00008369  00000+0  24865-3 0  9990
2 47508  97.2174 226.6622 0008262 138.1480 222.0397 15.34981442301870
HAWK-3B                 
1 48931U 21059BE  26183.49171354  .00046040  00000+0  36980-3 0  9998
2 48931  97.6639  21.6610 0003426 250.4226 109.6666 15.70861042280254
HAWK-3C                 
1 48948U 21059BX  26183.80989972  .00044347  00000+0  35598-3 0  9996
2 48948  97.6760  27.7223 0003653 251.9910 108.0954 15.70882605280309
HAWK-3A                 
1 48957U 21059CG  26183.80978217  .00044015  00000+0  35337-3 0  9999
2 48957  97.6708  24.9142 0003639 253.4708 106.6154 15.70880723280301
HAWK-5C                 
1 52754U 22057Y   26183.71508848  .00019146  00000+0  32022-3 0  9992
2 52754  97.6614 344.3901 0003912  31.2505 328.8979 15.51943221228756
HAWK-5B                 
1 52756U 22057AA  26183.71491039  .00019227  00000+0  32151-3 0  9990
2 52756  97.6626 342.7407 0004516  21.3656 338.7783 15.51945572228756
